IRIDIUM 155             
1 43573U 18061E   26040.57424189 -.00000011  00000+0 -10882-4 0  9996
2 43573  86.3960 110.0581 0002033  93.2120 266.9308 14.34217408395068
IRIDIUM 154             
1 43574U 18061F   26040.62498274  .00000247  00000+0  81110-4 0  9990
2 43574  86.3963 110.1645 0002000  97.8714 262.2709 14.34221274395124
IRIDIUM 163             
1 43575U 18061G   26040.60595338  .00000201  00000+0  64883-4 0  9996
2 43575  86.3960 110.0918 0002243  95.5651 264.5801 14.34217016395091
IRIDIUM 156             
1 43576U 18061H   26040.58058458  .00000068  00000+0  17295-4 0  9997
2 43576  86.3961 110.1094 0002099  91.2702 268.8734 14.34217547395088
IRIDIUM 164             
1 43577U 18061J   26040.63132512 -.00000065  00000+0 -30220-4 0  9990
2 43577  86.3960 110.1262 0001946 100.8480 259.2935 14.34216964395130
IRIDIUM 159             
1 43578U 18061K   26040.59962058  .00000275  00000+0  91095-4 0  9990
2 43578  86.3960 110.0795 0002313  98.6504 261.4954 14.34219004395090
IRIDIUM 180             
1 43922U 19002A   26040.59910318 -.00000022  00000+0 -14982-4 0  9993
2 43922  86.3926  46.9155 0002205  91.5407 268.6042 14.34217213370704
IRIDIUM 176             
1 43923U 19002B   26040.51565123  .00000488  00000+0  73481-4 0  9999
2 43923  86.6052  46.9120 0002453  89.1950 270.9548 14.72254242380467
IRIDIUM 168             
1 43924U 19002C   26040.52299700  .00000017  00000+0 -10924-5 0  9999
2 43924  86.3928  47.0212 0002137  90.1595 269.9846 14.34217571370670
IRIDIUM 173             
1 43925U 19002D   26040.51031107  .00000011  00000+0 -31047-5 0  9997
2 43925  86.3924  46.9205 0002192  86.4958 273.6489 14.34217506370650
IRIDIUM 169             
1 43926U 19002E   26040.61740563  .00000262  00000+0  79242-4 0  9997
2 43926  86.4172  78.5406 0002548  71.9574 288.1902 14.38606888371885
IRIDIUM 172             
1 43927U 19002F   26040.57373773  .00000015  00000+0 -18815-5 0  9995
2 43927  86.3928  46.9014 0002320  94.8792 265.2668 14.34217561370675
IRIDIUM 175             
1 43928U 19002G   26040.30711258  .00001356  00000+0  21103-3 0  9991
2 43928  86.1540 346.1180 0001290  85.5135 274.6229 14.72246883380428
IRIDIUM 171             
1 43929U 19002H   26040.55470775  .00000061  00000+0  14674-4 0  9993
2 43929  86.3939  47.2017 0002005  87.5121 272.6304 14.34217838370666
IRIDIUM 170             
1 43930U 19002J   26040.52184692  .00000479  00000+0  72065-4 0  9993
2 43930  86.6052  46.9127 0002400  92.9395 267.2097 14.72252086380472
IRIDIUM 167             
1 43931U 19002K   26040.54836108  .00000185  00000+0  58874-4 0  9998
2 43931  86.3929  46.9333 0002028  80.6295 279.5130 14.34214827370664
IRIDIUM 181             
1 56726U 23068S   26040.60970192  .00000365  00000+0  10255-3 0  9990
2 56726  86.4499 110.1424 0002172 106.3803 253.7637 14.43312177144032
IRIDIUM 177             
1 56727U 23068T   26040.48793716  .00001787  00000+0  23160-3 0  9990
2 56727  86.1955  29.4126 0002401  88.2038 271.9458 14.80237952147473
IRIDIUM 174             
1 56728U 23068U   26040.50946912  .00000530  00000+0  80128-4 0  9995
2 56728  86.6059  47.0524 0002546  91.3124 268.8385 14.72252416147234
IRIDIUM 178             
1 56729U 23068V   26040.61225210  .00001052  00000+0  13506-3 0  9994
2 56729  86.6490  78.6898 0001846  88.1141 272.0292 14.80233962147499
IRIDIUM 179             
1 56730U 23068W   26040.60686657  .00000899  00000+0  11486-3 0  9994
2 56730  86.6740  87.2986 0002330  91.6580 268.4908 14.80237314147496
